OBJECT_NAME,OBJECT_ID,EPOCH,MEAN_MOTION,ECCENTRICITY,INCLINATION,RA_OF_ASC_NODE,ARG_OF_PERICENTER,MEAN_ANOMALY,EPHEMERIS_TYPE,CLASSIFICATION_TYPE,NORAD_CAT_ID,ELEMENT_SET_NO,REV_AT_EPOCH,BSTAR,MEAN_MOTION_DOT,MEAN_MOTION_DDOT
KUIPER-00619,2026-151Q,2026-07-15T13:35:37.302144,15.38544065,.0001797,51.8795,178.4710,61.1174,298.9994,0,U,69777,999,207,.36781E-3,.13846E-3,0
KUIPER-00621,2026-151R,2026-07-15T10:31:20.831520,15.38333914,.00020287,51.8788,179.1166,112.4758,247.6444,0,U,69778,999,205,.35094743E-3,.131E-3,0
KUIPER-00622,2026-151S,2026-07-15T23:16:29.617536,15.36999195,.00069332,51.8731,176.6763,151.3216,208.8153,0,U,69779,999,213,.29712336E-3,.10552E-3,0
KUIPER-00623,2026-151T,2026-07-15T23:10:24.107520,15.37414551,.00058283,51.8760,176.6492,135.3934,224.7523,0,U,69780,999,213,.94888424E-4,.3144E-4,0
KUIPER-00626,2026-151U,2026-07-15T15:42:24.442848,15.35528979,.0009595,51.8721,178.3067,171.4573,188.6578,0,U,69781,999,208,.20711117E-3,.689E-4,0
KUIPER-00627,2026-151V,2026-07-15T15:44:58.127712,15.35404964,.0010969,51.8688,178.3199,167.4442,192.6819,0,U,69782,999,208,.34839397E-4,.83E-5,0
KUIPER-00629,2026-151W,2026-07-15T23:17:58.824672,15.35758245,.00078469,51.8737,176.6872,157.4438,202.6895,0,U,69783,999,213,-.10412081E-1,-.352067E-2,0
KUIPER-00631,2026-151X,2026-07-15T23:20:19.572000,15.36422791,.00096219,51.8705,176.6933,158.7241,201.4147,0,U,69784,999,213,-.2832096E-2,-.101398E-2,0
KUIPER-00634,2026-151Y,2026-07-15T10:38:27.703680,15.37737978,.00036783,51.8763,179.1507,136.8278,223.2998,0,U,69785,999,205,.23817204E-3,.8585E-4,0
KUIPER-00639,2026-151Z,2026-07-15T14:05:26.741184,15.35794227,.0009881,51.8682,178.6074,164.4795,195.6495,0,U,69786,999,207,-.14147E-3,-.5397E-4,0
KUIPER-00641,2026-151AA,2026-07-15T15:46:17.628672,15.35040736,.00087505,51.8646,178.3207,167.4670,192.6535,0,U,69787,999,208,-.24451722E-3,-.8827E-4,0
KUIPER-00644,2026-151AB,2026-07-15T23:23:58.106976,15.34223704,.00109147,51.8736,176.7058,172.6248,187.4900,0,U,69788,999,213,.56930581E-2,.196444E-2,0
KUIPER-00646,2026-151AC,2026-07-15T14:04:46.744896,15.35908355,.000969,51.8695,178.6048,166.6549,193.4695,0,U,69789,999,207,.21956E-3,.7421E-4,0
KUIPER-00647,2026-151AD,2026-07-15T21:58:35.463072,15.35415734,.00101941,51.8656,177.0576,165.6644,194.4632,0,U,69790,999,212,-.35378308E-3,-.12748E-3,0
KUIPER-00662,2026-151AE,2026-07-15T23:22:28.447104,15.35913481,.00074852,51.8715,176.7030,154.3985,205.7373,0,U,69791,999,213,.39177407E-3,.13554E-3,0
LINK,2026-152A,2026-07-15T12:04:20.589312,15.67259566,.0024663,20.5924,325.0312,359.5126,0.5294,0,U,69792,999,190,.1316565E-2,.154166E-2,0
2026-152B,2026-152B,2026-07-15T10:45:51.513696,15.64804905,.00226517,20.5985,325.6267,357.1088,2.9226,0,U,69793,999,189,.33724294E-3,.35865E-3,0
ISS OBJECT YJ,1998-067YJ,2026-07-15T22:52:05.228256,15.50058995,.0007771,51.6314,157.6532,314.2489,45.7861,0,U,69794,999,211,.3566433E-3,.2001E-3,0
ISS OBJECT YK,1998-067YK,2026-07-15T22:46:11.311392,15.50761777,.00067005,51.6314,157.6265,322.7205,37.3318,0,U,69795,999,211,.60009651E-3,.34906E-3,0
ISS OBJECT YL,1998-067YL,2026-07-15T21:14:55.180896,15.50510058,.00087807,51.6313,157.9528,315.1031,44.9247,0,U,69796,999,209,.47356603E-3,.2719E-3,0
ISS OBJECT YM,1998-067YM,2026-07-15T22:47:20.372640,15.50556821,.00095587,51.6314,157.6315,306.7504,53.2606,0,U,69797,999,209,.48477099E-3,.27901E-3,0
ISS OBJECT YN,1998-067YN,2026-07-15T22:48:27.964224,15.50336433,.00092302,51.6315,157.6367,318.1291,41.8991,0,U,69798,999,211,.33423474E-3,.18918E-3,0
ISS OBJECT YP,1998-067YP,2026-07-15T21:14:25.607904,15.50547036,.00097041,51.6313,157.9507,306.4247,53.5847,0,U,69799,999,209,.46539369E-3,.26756E-3,0
QIANFAN-201,2026-153A,2026-07-15T21:00:41.976576,14.26541275,.00080992,88.9923,358.9694,180.0604,180.0590,0,U,69800,999,164,.7793059E-4,.202E-5,0
QIANFAN-202,2026-153B,2026-07-15T11:09:20.822976,14.18136796,.0013098,88.9915,359.0199,178.9748,181.1470,0,U,69801,999,158,-.10892E+1,-.2066182E-1,0
QIANFAN-203,2026-153C,2026-07-15T12:47:53.091168,14.19175256,.0011906,88.9917,359.0117,189.5855,170.5109,0,U,69802,999,159,-.10513E+1,-.2035468E-1,0
QIANFAN-204,2026-153D,2026-07-15T22:56:27.836736,14.22390631,.00073301,88.9922,358.9629,181.1808,178.9367,0,U,69803,999,165,.37403681E-4,.98E-6,0
QIANFAN-205,2026-153E,2026-07-15T21:16:56.491680,14.22264422,.00075288,88.9922,358.9709,179.8659,180.2535,0,U,69804,999,164,.56806458E-4,.141E-5,0
QIANFAN-206,2026-153F,2026-07-15T21:06:51.186240,14.24034494,.00080188,88.9922,358.9700,180.7908,179.3274,0,U,69805,999,164,.1339699E-4,.45E-6,0
QIANFAN-207,2026-153G,2026-07-15T21:04:55.335072,14.24250535,.00074441,88.9922,358.9698,180.7639,179.3544,0,U,69806,999,164,.96668959E-4,.237E-5,0
