KUIPER-00619            
1 69777U 26151Q   26196.56640396  .00013846  00000+0  36781-3 0  9993
2 69777  51.8795 178.4710 0001797  61.1174 298.9994 15.38544065  2075
KUIPER-00621            
1 69778U 26151R   26196.43843555  .00013100  00000+0  35095-3 0  9992
2 69778  51.8788 179.1166 0002028 112.4758 247.6444 15.38333914  2055
KUIPER-00622            
1 69779U 26151S   26196.96978724  .00010552  00000+0  29712-3 0  9995
2 69779  51.8731 176.6763 0006933 151.3216 208.8153 15.36999195  2131
KUIPER-00623            
1 69780U 26151T   26196.96555680  .00003144  00000+0  94888-4 0  9995
2 69780  51.8760 176.6492 0005828 135.3934 224.7523 15.37414551  2132
KUIPER-00626            
1 69781U 26151U   26196.65444957  .00006890  00000+0  20711-3 0  9990
2 69781  51.8721 178.3067 0009595 171.4573 188.6578 15.35528979  2082
KUIPER-00627            
1 69782U 26151V   26196.65622833  .00000830  00000+0  34839-4 0  9997
2 69782  51.8688 178.3199 0010969 167.4442 192.6819 15.35404964  2088
KUIPER-00629            
1 69783U 26151W   26196.97081973 -.00352067  00000+0 -10412-1 0  9999
2 69783  51.8737 176.6872 0007846 157.4438 202.6895 15.35758245  2133
KUIPER-00631            
1 69784U 26151X   26196.97244875 -.00101398  00000+0 -28321-2 0  9990
2 69784  51.8705 176.6933 0009621 158.7241 201.4147 15.36422791  2138
KUIPER-00634            
1 69785U 26151Y   26196.44337620  .00008585  00000+0  23817-3 0  9992
2 69785  51.8763 179.1507 0003678 136.8278 223.2998 15.37737978  2055
KUIPER-00639            
1 69786U 26151Z   26196.58711506 -.00005397  00000+0 -14147-3 0  9993
2 69786  51.8682 178.6074 0009881 164.4795 195.6495 15.35794227  2076
KUIPER-00641            
1 69787U 26151AA  26196.65714848 -.00008827  00000+0 -24452-3 0  9995
2 69787  51.8646 178.3207 0008750 167.4670 192.6535 15.35040736  2083
KUIPER-00644            
1 69788U 26151AB  26196.97497809  .00196444  00000+0  56931-2 0  9993
2 69788  51.8736 176.7058 0010914 172.6248 187.4900 15.34223704  2135
KUIPER-00646            
1 69789U 26151AC  26196.58665214  .00007421  00000+0  21956-3 0  9994
2 69789  51.8695 178.6048 0009690 166.6549 193.4695 15.35908355  2070
KUIPER-00647            
1 69790U 26151AD  26196.91568823 -.00012748  00000+0 -35378-3 0  9994
2 69790  51.8656 177.0576 0010194 165.6644 194.4632 15.35415734  2126
KUIPER-00662            
1 69791U 26151AE  26196.97394036  .00013554  00000+0  39177-3 0  9999
2 69791  51.8715 176.7030 0007485 154.3985 205.7373 15.35913481  2137
LINK                    
1 69792U 26152A   26196.50301608  .00154166  00000+0  13166-2 0  9997
2 69792  20.5924 325.0312 0024663 359.5126   0.5294 15.67259566  1907
2026-152B               
1 69793U 26152B   26196.44851289  .00035865  00000+0  33724-3 0  9993
2 69793  20.5985 325.6267 0022651 357.1088   2.9226 15.64804905  1895
ISS OBJECT YJ           
1 69794U 98067YJ  26196.95283829  .00020010  00000+0  35664-3 0  9994
2 69794  51.6314 157.6532 0007771 314.2489  45.7861 15.50058995  2111
ISS OBJECT YK           
1 69795U 98067YK  26196.94874203  .00034906  00000+0  60010-3 0  9998
2 69795  51.6314 157.6265 0006700 322.7205  37.3318 15.50761777  2119
ISS OBJECT YL           
1 69796U 98067YL  26196.88536089  .00027190  00000+0  47357-3 0  9995
2 69796  51.6313 157.9528 0008780 315.1031  44.9247 15.50510058  2093
ISS OBJECT YM           
1 69797U 98067YM  26196.94954135  .00027901  00000+0  48477-3 0  9993
2 69797  51.6314 157.6315 0009558 306.7504  53.2606 15.50556821  2091
ISS OBJECT YN           
1 69798U 98067YN  26196.95032366  .00018918  00000+0  33423-3 0  9991
2 69798  51.6315 157.6367 0009230 318.1291  41.8991 15.50336433  2115
ISS OBJECT YP           
1 69799U 98067YP  26196.88501861  .00026756  00000+0  46539-3 0  9996
2 69799  51.6313 157.9507 0009704 306.4247  53.5847 15.50547036  2090
QIANFAN-201             
1 69800U 26153A   26196.87548584  .00000202  00000+0  77931-4 0  9997
2 69800  88.9923 358.9694 0008099 180.0604 180.0590 14.26541275  1644
QIANFAN-202             
1 69801U 26153B   26196.46482434 -.02066182  00000+0 -10892+1 0  9996
2 69801  88.9915 359.0199 0013098 178.9748 181.1470 14.18136796  1589
QIANFAN-203             
1 69802U 26153C   26196.53325337 -.02035468  00000+0 -10513+1 0  9996
2 69802  88.9917 359.0117 0011906 189.5855 170.5109 14.19175256  1592
QIANFAN-204             
1 69803U 26153D   26196.95587774  .00000098  00000+0  37404-4 0  9997
2 69803  88.9922 358.9629 0007330 181.1808 178.9367 14.22390631  1652
QIANFAN-205             
1 69804U 26153E   26196.88676495  .00000141  00000+0  56806-4 0  9995
2 69804  88.9922 358.9709 0007528 179.8659 180.2535 14.22264422  1649
QIANFAN-206             
1 69805U 26153F   26196.87975910  .00000045  00000+0  13397-4 0  9990
2 69805  88.9922 358.9700 0008018 180.7908 179.3274 14.24034494  1649
QIANFAN-207             
1 69806U 26153G   26196.87841823  .00000237  00000+0  96669-4 0  9992
2 69806  88.9922 358.9698 0007444 180.7639 179.3544 14.24250535  1645
